[Satellite]
VERSION=1.1
NAME=IRIDIUM 173
NICKNAME=IRIDIUM 173
TLE1=1 43925U 19002D   19317.47511126  .00000099  00000-0  28212-4 0  9990
TLE2=2 43925  86.3944 279.7104 0002407  87.5687 272.5784 14.34215034 43866
STATUS=0
